[{"OBJECT_NAME":"ONEWEB-0714","OBJECT_ID":"2022-166AR","EPOCH":"2026-04-03T00:10:34.576032","MEAN_MOTION":13.21912652,"ECCENTRICITY":0.0001682,"INCLINATION":87.9181,"RA_OF_ASC_NODE":258.9595,"ARG_OF_PERICENTER":104.4178,"MEAN_ANOMALY":255.7143,"EPHEMERIS_TYPE":0,"CLASSIFICATION_TYPE":"U","NORAD_CAT_ID":54681,"ELEMENT_SET_NO":999,"REV_AT_EPOCH":16160,"BSTAR":0.012025000000000001,"MEAN_MOTION_DOT":4.988e-05,"MEAN_MOTION_DDOT":0.0},{"OBJECT_NAME":"ONEWEB-0532","OBJECT_ID":"2023-004A","EPOCH":"2026-04-03T07:29:30.312096","MEAN_MOTION":13.17650153,"ECCENTRICITY":0.0001512,"INCLINATION":87.9185,"RA_OF_ASC_NODE":20.7346,"ARG_OF_PERICENTER":71.3241,"MEAN_ANOMALY":288.8055,"EPHEMERIS_TYPE":0,"CLASSIFICATION_TYPE":"U","NORAD_CAT_ID":55140,"ELEMENT_SET_NO":999,"REV_AT_EPOCH":15772,"BSTAR":0.00037642999999999997,"MEAN_MOTION_DOT":1.59e-06,"MEAN_MOTION_DDOT":0.0},{"OBJECT_NAME":"ONEWEB-0533","OBJECT_ID":"2023-004B","EPOCH":"2026-04-03T05:04:18.302880","MEAN_MOTION":13.12444362,"ECCENTRICITY":0.0001726,"INCLINATION":87.9021,"RA_OF_ASC_NODE":5.5565,"ARG_OF_PERICENTER":84.5093,"MEAN_ANOMALY":275.6233,"EPHEMERIS_TYPE":0,"CLASSIFICATION_TYPE":"U","NORAD_CAT_ID":55141,"ELEMENT_SET_NO":999,"REV_AT_EPOCH":15822,"BSTAR":0.0010374,"MEAN_MOTION_DOT":3.86e-06,"MEAN_MOTION_DDOT":0.0},{"OBJECT_NAME":"ONEWEB-0541","OBJECT_ID":"2023-004C","EPOCH":"2026-04-03T06:12:46.492416","MEAN_MOTION":13.1141801,"ECCENTRICITY":0.0001875,"INCLINATION":87.8917,"RA_OF_ASC_NODE":35.9457,"ARG_OF_PERICENTER":74.6031,"MEAN_ANOMALY":285.5304,"EPHEMERIS_TYPE":0,"CLASSIFICATION_TYPE":"U","NORAD_CAT_ID":55142,"ELEMENT_SET_NO":999,"REV_AT_EPOCH":15612,"BSTAR":-0.00088749,"MEAN_MOTION_DOT":-3.02e-06,"MEAN_MOTION_DDOT":0.0},{"OBJECT_NAME":"ONEWEB-0543","OBJECT_ID":"2023-004D","EPOCH":"2026-04-03T04:44:53.346624","MEAN_MOTION":13.18688481,"ECCENTRICITY":0.000202,"INCLINATION":87.9227,"RA_OF_ASC_NODE":350.3809,"ARG_OF_PERICENTER":84.6179,"MEAN_ANOMALY":275.5183,"EPHEMERIS_TYPE":0,"CLASSIFICATION_TYPE":"U","NORAD_CAT_ID":55143,"ELEMENT_SET_NO":999,"REV_AT_EPOCH":15981,"BSTAR":0.00030064999999999996,"MEAN_MOTION_DOT":1.31e-06,"MEAN_MOTION_DDOT":0.0},{"OBJECT_NAME":"ONEWEB-0544","OBJECT_ID":"2023-004E","EPOCH":"2026-04-03T04:35:23.167104","MEAN_MOTION":13.18688607,"ECCENTRICITY":0.0001984,"INCLINATION":87.9231,"RA_OF_ASC_NODE":350.3811,"ARG_OF_PERICENTER":76.297,"MEAN_ANOMALY":283.8384,"EPHEMERIS_TYPE":0,"CLASSIFICATION_TYPE":"U","NORAD_CAT_ID":55144,"ELEMENT_SET_NO":999,"REV_AT_EPOCH":15981,"BSTAR":0.00026702999999999997,"MEAN_MOTION_DOT":1.18e-06,"MEAN_MOTION_DDOT":0.0},{"OBJECT_NAME":"ONEWEB-0560","OBJECT_ID":"2023-004F","EPOCH":"2026-04-03T06:15:08.999712","MEAN_MOTION":13.1868673,"ECCENTRICITY":0.0001977,"INCLINATION":87.9229,"RA_OF_ASC_NODE":350.3567,"ARG_OF_PERICENTER":76.5511,"MEAN_ANOMALY":283.5842,"EPHEMERIS_TYPE":0,"CLASSIFICATION_TYPE":"U","NORAD_CAT_ID":55145,"ELEMENT_SET_NO":999,"REV_AT_EPOCH":15983,"BSTAR":-0.00039184,"MEAN_MOTION_DOT":-1.42e-06,"MEAN_MOTION_DDOT":0.0},{"OBJECT_NAME":"ONEWEB-0565","OBJECT_ID":"2023-004G","EPOCH":"2026-04-03T06:05:38.664672","MEAN_MOTION":13.18687958,"ECCENTRICITY":0.0001914,"INCLINATION":87.9219,"RA_OF_ASC_NODE":350.3933,"ARG_OF_PERICENTER":65.069,"MEAN_ANOMALY":295.0641,"EPHEMERIS_TYPE":0,"CLASSIFICATION_TYPE":"U","NORAD_CAT_ID":55146,"ELEMENT_SET_NO":999,"REV_AT_EPOCH":15982,"BSTAR":0.00018407000000000002,"MEAN_MOTION_DOT":8.5e-07,"MEAN_MOTION_DDOT":0.0},{"OBJECT_NAME":"ONEWEB-0567","OBJECT_ID":"2023-004H","EPOCH":"2026-04-03T05:56:09.093408","MEAN_MOTION":13.18686697,"ECCENTRICITY":0.0001997,"INCLINATION":87.9229,"RA_OF_ASC_NODE":350.3718,"ARG_OF_PERICENTER":69.541,"MEAN_ANOMALY":290.5937,"EPHEMERIS_TYPE":0,"CLASSIFICATION_TYPE":"U","NORAD_CAT_ID":55147,"ELEMENT_SET_NO":999,"REV_AT_EPOCH":15982,"BSTAR":-0.00030481000000000003,"MEAN_MOTION_DOT":-1.07e-06,"MEAN_MOTION_DDOT":0.0},{"OBJECT_NAME":"ONEWEB-0569","OBJECT_ID":"2023-004J","EPOCH":"2026-04-03T04:50:28.991616","MEAN_MOTION":13.1346912,"ECCENTRICITY":0.0002608,"INCLINATION":87.9014,"RA_OF_ASC_NODE":335.1437,"ARG_OF_PERICENTER":72.2025,"MEAN_ANOMALY":287.9388,"EPHEMERIS_TYPE":0,"CLASSIFICATION_TYPE":"U","NORAD_CAT_ID":55148,"ELEMENT_SET_NO":999,"REV_AT_EPOCH":16033,"BSTAR":0.0009838,"MEAN_MOTION_DOT":3.72e-06,"MEAN_MOTION_DDOT":0.0},{"OBJECT_NAME":"ONEWEB-0570","OBJECT_ID":"2023-004K","EPOCH":"2026-04-03T05:41:53.764512","MEAN_MOTION":13.18687879,"ECCENTRICITY":0.000144,"INCLINATION":87.9228,"RA_OF_ASC_NODE":350.3716,"ARG_OF_PERICENTER":65.0254,"MEAN_ANOMALY":295.1027,"EPHEMERIS_TYPE":0,"CLASSIFICATION_TYPE":"U","NORAD_CAT_ID":55149,"ELEMENT_SET_NO":999,"REV_AT_EPOCH":15981,"BSTAR":0.00023246,"MEAN_MOTION_DOT":1.05e-06,"MEAN_MOTION_DDOT":0.0},{"OBJECT_NAME":"ONEWEB-0571","OBJECT_ID":"2023-004L","EPOCH":"2026-04-03T05:32:23.956512","MEAN_MOTION":13.18687724,"ECCENTRICITY":0.0002603,"INCLINATION":87.9228,"RA_OF_ASC_NODE":350.3716,"ARG_OF_PERICENTER":55.3107,"MEAN_ANOMALY":304.827,"EPHEMERIS_TYPE":0,"CLASSIFICATION_TYPE":"U","NORAD_CAT_ID":55150,"ELEMENT_SET_NO":999,"REV_AT_EPOCH":15982,"BSTAR":4.6001e-05,"MEAN_MOTION_DOT":3.1e-07,"MEAN_MOTION_DDOT":0.0},{"OBJECT_NAME":"ONEWEB-0572","OBJECT_ID":"2023-004M","EPOCH":"2026-04-03T06:23:53.591136","MEAN_MOTION":13.1765088,"ECCENTRICITY":0.0001907,"INCLINATION":87.9181,"RA_OF_ASC_NODE":20.7457,"ARG_OF_PERICENTER":72.2834,"MEAN_ANOMALY":287.8506,"EPHEMERIS_TYPE":0,"CLASSIFICATION_TYPE":"U","NORAD_CAT_ID":55151,"ELEMENT_SET_NO":999,"REV_AT_EPOCH":15761,"BSTAR":0.00029704000000000004,"MEAN_MOTION_DOT":1.28e-06,"MEAN_MOTION_DDOT":0.0},{"OBJECT_NAME":"ONEWEB-0573","OBJECT_ID":"2023-004N","EPOCH":"2026-04-03T05:22:53.090112","MEAN_MOTION":13.18688718,"ECCENTRICITY":0.0001856,"INCLINATION":87.9228,"RA_OF_ASC_NODE":350.3747,"ARG_OF_PERICENTER":54.0981,"MEAN_ANOMALY":306.0323,"EPHEMERIS_TYPE":0,"CLASSIFICATION_TYPE":"U","NORAD_CAT_ID":55152,"ELEMENT_SET_NO":999,"REV_AT_EPOCH":15981,"BSTAR":0.00041481,"MEAN_MOTION_DOT":1.76e-06,"MEAN_MOTION_DDOT":0.0},{"OBJECT_NAME":"ONEWEB-0588","OBJECT_ID":"2023-004P","EPOCH":"2026-04-03T05:13:23.903328","MEAN_MOTION":13.18686912,"ECCENTRICITY":0.0001519,"INCLINATION":87.9229,"RA_OF_ASC_NODE":350.3768,"ARG_OF_PERICENTER":66.1788,"MEAN_ANOMALY":293.9503,"EPHEMERIS_TYPE":0,"CLASSIFICATION_TYPE":"U","NORAD_CAT_ID":55153,"ELEMENT_SET_NO":999,"REV_AT_EPOCH":15981,"BSTAR":0.00028509,"MEAN_MOTION_DOT":1.25e-06,"MEAN_MOTION_DDOT":0.0},{"OBJECT_NAME":"ONEWEB-0598","OBJECT_ID":"2023-004Q","EPOCH":"2026-04-03T07:30:54.129600","MEAN_MOTION":13.11416045,"ECCENTRICITY":0.0002398,"INCLINATION":87.8902,"RA_OF_ASC_NODE":35.9537,"ARG_OF_PERICENTER":70.9541,"MEAN_ANOMALY":289.1847,"EPHEMERIS_TYPE":0,"CLASSIFICATION_TYPE":"U","NORAD_CAT_ID":55154,"ELEMENT_SET_NO":999,"REV_AT_EPOCH":15608,"BSTAR":-0.00052829,"MEAN_MOTION_DOT":-1.75e-06,"MEAN_MOTION_DDOT":0.0}]