ONEWEB-0714             
1 54681U 22166AR  26093.00734463  .00004988  00000+0  12025-1 0  9997
2 54681  87.9181 258.9595 0001682 104.4178 255.7143 13.21912652161608
ONEWEB-0532             
1 55140U 23004A   26093.31215639  .00000159  00000+0  37643-3 0  9994
2 55140  87.9185  20.7346 0001512  71.3241 288.8055 13.17650153157724
ONEWEB-0533             
1 55141U 23004B   26093.21132295  .00000386  00000+0  10374-2 0  9993
2 55141  87.9021   5.5565 0001726  84.5093 275.6233 13.12444362158222
ONEWEB-0541             
1 55142U 23004C   26093.25887144 -.00000302  00000+0 -88749-3 0  9990
2 55142  87.8917  35.9457 0001875  74.6031 285.5304 13.11418010156126
ONEWEB-0543             
1 55143U 23004D   26093.19783966  .00000131  00000+0  30065-3 0  9997
2 55143  87.9227 350.3809 0002020  84.6179 275.5183 13.18688481159815
ONEWEB-0544             
1 55144U 23004E   26093.19124036  .00000118  00000+0  26703-3 0  9994
2 55144  87.9231 350.3811 0001984  76.2970 283.8384 13.18688607159813
ONEWEB-0560             
1 55145U 23004F   26093.26052083 -.00000142  00000+0 -39184-3 0  9991
2 55145  87.9229 350.3567 0001977  76.5511 283.5842 13.18686730159838
ONEWEB-0565             
1 55146U 23004G   26093.25391973  .00000085  00000+0  18407-3 0  9994
2 55146  87.9219 350.3933 0001914  65.0690 295.0641 13.18687958159824
ONEWEB-0567             
1 55147U 23004H   26093.24732747 -.00000107  00000+0 -30481-3 0  9995
2 55147  87.9229 350.3718 0001997  69.5410 290.5937 13.18686697159824
ONEWEB-0569             
1 55148U 23004J   26093.20172444  .00000372  00000+0  98380-3 0  9998
2 55148  87.9014 335.1437 0002608  72.2025 287.9388 13.13469120160332
ONEWEB-0570             
1 55149U 23004K   26093.23742783  .00000105  00000+0  23246-3 0  9994
2 55149  87.9228 350.3716 0001440  65.0254 295.1027 13.18687879159816
ONEWEB-0571             
1 55150U 23004L   26093.23083283  .00000031  00000+0  46001-4 0  9992
2 55150  87.9228 350.3716 0002603  55.3107 304.8270 13.18687724159827
ONEWEB-0572             
1 55151U 23004M   26093.26659249  .00000128  00000+0  29704-3 0  9994
2 55151  87.9181  20.7457 0001907  72.2834 287.8506 13.17650880157616
ONEWEB-0573             
1 55152U 23004N   26093.22422558  .00000176  00000+0  41481-3 0  9991
2 55152  87.9228 350.3747 0001856  54.0981 306.0323 13.18688718159814
ONEWEB-0588             
1 55153U 23004P   26093.21763777  .00000125  00000+0  28509-3 0  9992
2 55153  87.9229 350.3768 0001519  66.1788 293.9503 13.18686912159812
ONEWEB-0598             
1 55154U 23004Q   26093.31312650 -.00000175  00000+0 -52829-3 0  9993
2 55154  87.8902  35.9537 0002398  70.9541 289.1847 13.11416045156081
